$GPGGA,080822.230,4831.238,N,00743.657,E,1,12,1.0,0.0,M,0.0,M,,*6C
$GPGSA,A,3,01,02,03,04,05,06,07,08,09,10,11,12,1.0,1.0,1.0*30
$GPRMC,080822.230,A,4831.238,N,00743.657,E,030.9,100.7,030523,000.0,W*73
$GPGGA,080823.230,4831.236,N,00743.670,E,1,12,1.0,0.0,M,0.0,M,,*66
$GPGSA,A,3,01,02,03,04,05,06,07,08,09,10,11,12,1.0,1.0,1.0*30
$GPRMC,080823.230,A,4831.236,N,00743.670,E,028.3,099.2,030523,000.0,W*7E
$GPGGA,080824.230,4831.234,N,00743.681,E,1,12,1.0,0.0,M,0.0,M,,*6D
$GPGSA,A,3,01,02,03,04,05,06,07,08,09,10,11,12,1.0,1.0,1.0*30
$GPRMC,080824.230,A,4831.234,N,00743.681,E,033.6,099.5,030523,000.0,W*7D
$GPGGA,080825.230,4831.232,N,00743.695,E,1,12,1.0,0.0,M,0.0,M,,*6F
$GPGSA,A,3,01,02,03,04,05,06,07,08,09,10,11,12,1.0,1.0,1.0*30
$GPRMC,080825.230,A,4831.232,N,00743.695,E,031.8,099.6,030523,000.0,W*70
$GPGGA,080826.230,4831.229,N,00743.708,E,1,12,1.0,0.0,M,0.0,M,,*63
$GPGSA,A,3,01,02,03,04,05,06,07,08,09,10,11,12,1.0,1.0,1.0*30
$GPRMC,080826.230,A,4831.229,N,00743.708,E,034.5,098.4,030523,000.0,W*77
$GPGGA,080827.230,4831.227,N,00743.722,E,1,12,1.0,0.0,M,0.0,M,,*64
$GPGSA,A,3,01,02,03,04,05,06,07,08,09,10,11,12,1.0,1.0,1.0*30
$GPRMC,080827.230,A,4831.227,N,00743.722,E,027.8,098.8,030523,000.0,W*73
$GPGGA,080828.230,4831.226,N,00743.733,E,1,12,1.0,0.0,M,0.0,M,,*6A
$GPGSA,A,3,01,02,03,04,05,06,07,08,09,10,11,12,1.0,1.0,1.0*30
$GPRMC,080828.230,A,4831.226,N,00743.733,E,028.9,098.0,030523,000.0,W*7B
$GPGGA,080829.230,4831.224,N,00743.745,E,1,12,1.0,0.0,M,0.0,M,,*68
$GPGSA,A,3,01,02,03,04,05,06,07,08,09,10,11,12,1.0,1.0,1.0*30
$GPRMC,080829.230,A,4831.224,N,00743.745,E,024.7,098.3,030523,000.0,W*78
$GPGGA,080830.230,4831.222,N,00743.755,E,1,12,1.0,0.0,M,0.0,M,,*67
$GPGSA,A,3,01,02,03,04,05,06,07,08,09,10,11,12,1.0,1.0,1.0*30
$GPRMC,080830.230,A,4831.222,N,00743.755,E,026.7,100.1,030523,000.0,W*77
$GPGGA,080831.230,4831.221,N,00743.766,E,1,12,1.0,0.0,M,0.0,M,,*65
$GPGSA,A,3,01,02,03,04,05,06,07,08,09,10,11,12,1.0,1.0,1.0*30
$GPRMC,080831.230,A,4831.221,N,00743.766,E,023.9,098.6,030523,000.0,W*79
$GPGGA,080832.230,4831.219,N,00743.776,E,1,12,1.0,0.0,M,0.0,M,,*6C
$GPGSA,A,3,01,02,03,04,05,06,07,08,09,10,11,12,1.0,1.0,1.0*30
$GPRMC,080832.230,A,4831.219,N,00743.776,E,024.9,097.3,030523,000.0,W*7D
$GPGGA,080833.230,4831.218,N,00743.786,E,1,12,1.0,0.0,M,0.0,M,,*63
$GPGSA,A,3,01,02,03,04,05,06,07,08,09,10,11,12,1.0,1.0,1.0*30
$GPRMC,080833.230,A,4831.218,N,00743.786,E,027.1,097.8,030523,000.0,W*72
$GPGGA,080834.230,4831.216,N,00743.797,E,1,12,1.0,0.0,M,0.0,M,,*6A
$GPGSA,A,3,01,02,03,04,05,06,07,08,09,10,11,12,1.0,1.0,1.0*30
$GPRMC,080834.230,A,4831.216,N,00743.797,E,028.8,096.7,030523,000.0,W*73
$GPGGA,080835.230,4831.215,N,00743.809,E,1,12,1.0,0.0,M,0.0,M,,*60
$GPGSA,A,3,01,02,03,04,05,06,07,08,09,10,11,12,1.0,1.0,1.0*30
$GPRMC,080835.230,A,4831.215,N,00743.809,E,025.8,096.3,030523,000.0,W*70
$GPGGA,080836.230,4831.214,N,00743.820,E,1,12,1.0,0.0,M,0.0,M,,*69
$GPGSA,A,3,01,02,03,04,05,06,07,08,09,10,11,12,1.0,1.0,1.0*30
$GPRMC,080836.230,A,4831.214,N,00743.820,E,027.7,096.0,030523,000.0,W*77
$GPGGA,080837.230,4831.213,N,00743.831,E,1,12,1.0,0.0,M,0.0,M,,*6F
$GPGSA,A,3,01,02,03,04,05,06,07,08,09,10,11,12,1.0,1.0,1.0*30
$GPRMC,080837.230,A,4831.213,N,00743.831,E,032.6,097.9,030523,000.0,W*7C
$GPGGA,080838.230,4831.211,N,00743.845,E,1,12,1.0,0.0,M,0.0,M,,*61
$GPGSA,A,3,01,02,03,04,05,06,07,08,09,10,11,12,1.0,1.0,1.0*30
$GPRMC,080838.230,A,4831.211,N,00743.845,E,030.9,097.8,030523,000.0,W*7E
$GPGGA,080839.230,4831.209,N,00743.857,E,1,12,1.0,0.0,M,0.0,M,,*6A
$GPGSA,A,3,01,02,03,04,05,06,07,08,09,10,11,12,1.0,1.0,1.0*30
$GPRMC,080839.230,A,4831.209,N,00743.857,E,023.1,097.9,030523,000.0,W*7E
$GPGGA,080840.230,4831.208,N,00743.867,E,1,12,1.0,0.0,M,0.0,M,,*66
$GPGSA,A,3,01,02,03,04,05,06,07,08,09,10,11,12,1.0,1.0,1.0*30
$GPRMC,080840.230,A,4831.208,N,00743.867,E,022.9,097.1,030523,000.0,W*73
$GPGGA,080841.230,4831.206,N,00743.876,E,1,12,1.0,0.0,M,0.0,M,,*69
$GPGSA,A,3,01,02,03,04,05,06,07,08,09,10,11,12,1.0,1.0,1.0*30
$GPRMC,080841.230,A,4831.206,N,00743.876,E,024.1,097.4,030523,000.0,W*77
$GPGGA,080842.230,4831.205,N,00743.886,E,1,12,1.0,0.0,M,0.0,M,,*66
$GPGSA,A,3,01,02,03,04,05,06,07,08,09,10,11,12,1.0,1.0,1.0*30
$GPRMC,080842.230,A,4831.205,N,00743.886,E,026.5,096.7,030523,000.0,W*7C
$GPGGA,080843.230,4831.204,N,00743.897,E,1,12,1.0,0.0,M,0.0,M,,*66
$GPGSA,A,3,01,02,03,04,05,06,07,08,09,10,11,12,1.0,1.0,1.0*30
$GPRMC,080843.230,A,4831.204,N,00743.897,E,029.8,098.0,030523,000.0,W*77
$GPGGA,080844.230,4831.202,N,00743.909,E,1,12,1.0,0.0,M,0.0,M,,*61
$GPGSA,A,3,01,02,03,04,05,06,07,08,09,10,11,12,1.0,1.0,1.0*30
$GPRMC,080844.230,A,4831.202,N,00743.909,E,026.8,097.9,030523,000.0,W*79
$GPGGA,080845.230,4831.201,N,00743.920,E,1,12,1.0,0.0,M,0.0,M,,*68
$GPGSA,A,3,01,02,03,04,05,06,07,08,09,10,11,12,1.0,1.0,1.0*30
$GPRMC,080845.230,A,4831.201,N,00743.920,E,028.0,097.3,030523,000.0,W*7C
$GPGGA,080846.230,4831.199,N,00743.932,E,1,12,1.0,0.0,M,0.0,M,,*6A
$GPGSA,A,3,01,02,03,04,05,06,07,08,09,10,11,12,1.0,1.0,1.0*30
$GPRMC,080846.230,A,4831.199,N,00743.932,E,027.8,097.0,030523,000.0,W*7A
$GPGGA,080847.230,4831.198,N,00743.943,E,1,12,1.0,0.0,M,0.0,M,,*6C
$GPGSA,A,3,01,02,03,04,05,06,07,08,09,10,11,12,1.0,1.0,1.0*30
$GPRMC,080847.230,A,4831.198,N,00743.943,E,027.2,097.6,030523,000.0,W*70
$GPGGA,080848.230,4831.196,N,00743.954,E,1,12,1.0,0.0,M,0.0,M,,*6B
$GPGSA,A,3,01,02,03,04,05,06,07,08,09,10,11,12,1.0,1.0,1.0*30
$GPRMC,080848.230,A,4831.196,N,00743.954,E,031.1,098.6,030523,000.0,W*7C
$GPGGA,080849.230,4831.194,N,00743.967,E,1,12,1.0,0.0,M,0.0,M,,*68
$GPGSA,A,3,01,02,03,04,05,06,07,08,09,10,11,12,1.0,1.0,1.0*30
$GPRMC,080849.230,A,4831.194,N,00743.967,E,028.8,100.6,030523,000.0,W*7E
$GPGGA,080850.230,4831.192,N,00743.979,E,1,12,1.0,0.0,M,0.0,M,,*69
$GPGSA,A,3,01,02,03,04,05,06,07,08,09,10,11,12,1.0,1.0,1.0*30
$GPRMC,080850.230,A,4831.192,N,00743.979,E,025.7,100.8,030523,000.0,W*73
$GPGGA,080851.230,4831.190,N,00743.989,E,1,12,1.0,0.0,M,0.0,M,,*65
$GPGSA,A,3,01,02,03,04,05,06,07,08,09,10,11,12,1.0,1.0,1.0*30
$GPRMC,080851.230,A,4831.190,N,00743.989,E,024.3,102.5,030523,000.0,W*75
$GPGGA,080852.230,4831.188,N,00743.999,E,1,12,1.0,0.0,M,0.0,M,,*6E
$GPGSA,A,3,01,02,03,04,05,06,07,08,09,10,11,12,1.0,1.0,1.0*30
$GPRMC,080852.230,A,4831.188,N,00743.999,E,026.4,102.8,030523,000.0,W*76
$GPGGA,080853.230,4831.186,N,00744.009,E,1,12,1.0,0.0,M,0.0,M,,*66
$GPGSA,A,3,01,02,03,04,05,06,07,08,09,10,11,12,1.0,1.0,1.0*30
$GPRMC,080853.230,A,4831.186,N,00744.009,E,024.1,103.3,030523,000.0,W*73
$GPGGA,080854.230,4831.184,N,00744.019,E,1,12,1.0,0.0,M,0.0,M,,*62
$GPGSA,A,3,01,02,03,04,05,06,07,08,09,10,11,12,1.0,1.0,1.0*30
$GPRMC,080854.230,A,4831.184,N,00744.019,E,022.4,101.3,030523,000.0,W*76
$GPGGA,080855.230,4831.182,N,00744.028,E,1,12,1.0,0.0,M,0.0,M,,*67
$GPGSA,A,3,01,02,03,04,05,06,07,08,09,10,11,12,1.0,1.0,1.0*30
$GPRMC,080855.230,A,4831.182,N,00744.028,E,028.1,100.8,030523,000.0,W*76
$GPGGA,080856.230,4831.180,N,00744.039,E,1,12,1.0,0.0,M,0.0,M,,*66
$GPGSA,A,3,01,02,03,04,05,06,07,08,09,10,11,12,1.0,1.0,1.0*30
$GPRMC,080856.230,A,4831.180,N,00744.039,E,028.5,099.7,030523,000.0,W*7D
$GPGGA,080857.230,4831.178,N,00744.051,E,1,12,1.0,0.0,M,0.0,M,,*6E
$GPGSA,A,3,01,02,03,04,05,06,07,08,09,10,11,12,1.0,1.0,1.0*30
$GPRMC,080857.230,A,4831.178,N,00744.051,E,034.1,098.8,030523,000.0,W*72
$GPGGA,080858.230,4831.175,N,00744.065,E,1,12,1.0,0.0,M,0.0,M,,*6B
$GPGSA,A,3,01,02,03,04,05,06,07,08,09,10,11,12,1.0,1.0,1.0*30
$GPRMC,080858.230,A,4831.175,N,00744.065,E,026.8,099.1,030523,000.0,W*75
$GPGGA,080859.230,4831.174,N,00744.075,E,1,12,1.0,0.0,M,0.0,M,,*6A
$GPGSA,A,3,01,02,03,04,05,06,07,08,09,10,11,12,1.0,1.0,1.0*30
$GPRMC,080859.230,A,4831.174,N,00744.075,E,025.3,099.9,030523,000.0,W*74
$GPGGA,080900.230,4831.172,N,00744.086,E,1,12,1.0,0.0,M,0.0,M,,*6D
$GPGSA,A,3,01,02,03,04,05,06,07,08,09,10,11,12,1.0,1.0,1.0*30
$GPRMC,080900.230,A,4831.172,N,00744.086,E,022.7,099.6,030523,000.0,W*7F
$GPGGA,080901.230,4831.170,N,00744.095,E,1,12,1.0,0.0,M,0.0,M,,*6C
$GPGSA,A,3,01,02,03,04,05,06,07,08,09,10,11,12,1.0,1.0,1.0*30
$GPRMC,080901.230,A,4831.170,N,00744.095,E,025.8,100.8,030523,000.0,W*79
$GPGGA,080902.230,4831.168,N,00744.105,E,1,12,1.0,0.0,M,0.0,M,,*6E
$GPGSA,A,3,01,02,03,04,05,06,07,08,09,10,11,12,1.0,1.0,1.0*30
$GPRMC,080902.230,A,4831.168,N,00744.105,E,027.5,103.5,030523,000.0,W*7A
$GPGGA,080903.230,4831.166,N,00744.116,E,1,12,1.0,0.0,M,0.0,M,,*63
$GPGSA,A,3,01,02,03,04,05,06,07,08,09,10,11,12,1.0,1.0,1.0*30
$GPRMC,080903.230,A,4831.166,N,00744.116,E,027.1,106.4,030523,000.0,W*77
$GPGGA,080904.230,4831.163,N,00744.126,E,1,12,1.0,0.0,M,0.0,M,,*62
$GPGSA,A,3,01,02,03,04,05,06,07,08,09,10,11,12,1.0,1.0,1.0*30
$GPRMC,080904.230,A,4831.163,N,00744.126,E,028.1,112.1,030523,000.0,W*79
$GPGGA,080905.230,4831.159,N,00744.137,E,1,12,1.0,0.0,M,0.0,M,,*6A
$GPGSA,A,3,01,02,03,04,05,06,07,08,09,10,11,12,1.0,1.0,1.0*30
$GPRMC,080905.230,A,4831.159,N,00744.137,E,028.8,109.7,030523,000.0,W*74
$GPGGA,080906.230,4831.155,N,00744.147,E,1,12,1.0,0.0,M,0.0,M,,*62
$GPGSA,A,3,01,02,03,04,05,06,07,08,09,10,11,12,1.0,1.0,1.0*30
$GPRMC,080906.230,A,4831.155,N,00744.147,E,026.9,109.2,030523,000.0,W*76
$GPGGA,080907.230,4831.151,N,00744.157,E,1,12,1.0,0.0,M,0.0,M,,*66
$GPGSA,A,3,01,02,03,04,05,06,07,08,09,10,11,12,1.0,1.0,1.0*30
$GPRMC,080907.230,A,4831.151,N,00744.157,E,030.3,106.5,030523,000.0,W*77
$GPGGA,080908.230,4831.148,N,00744.169,E,1,12,1.0,0.0,M,0.0,M,,*6C
$GPGSA,A,3,01,02,03,04,05,06,07,08,09,10,11,12,1.0,1.0,1.0*30
$GPRMC,080908.230,A,4831.148,N,00744.169,E,026.2,104.0,030523,000.0,W*7C
$GPGGA,080909.230,4831.146,N,00744.179,E,1,12,1.0,0.0,M,0.0,M,,*62
$GPGSA,A,3,01,02,03,04,05,06,07,08,09,10,11,12,1.0,1.0,1.0*30
$GPRMC,080909.230,A,4831.146,N,00744.179,E,024.2,102.0,030523,000.0,W*76
$GPGGA,080910.230,4831.143,N,00744.189,E,1,12,1.0,0.0,M,0.0,M,,*60
$GPGSA,A,3,01,02,03,04,05,06,07,08,09,10,11,12,1.0,1.0,1.0*30
$GPRMC,080910.230,A,4831.143,N,00744.189,E,024.4,101.7,030523,000.0,W*76
$GPGGA,080911.230,4831.141,N,00744.198,E,1,12,1.0,0.0,M,0.0,M,,*63
$GPGSA,A,3,01,02,03,04,05,06,07,08,09,10,11,12,1.0,1.0,1.0*30
$GPRMC,080911.230,A,4831.141,N,00744.198,E,029.8,099.3,030523,000.0,W*70
$GPGGA,080912.230,4831.139,N,00744.211,E,1,12,1.0,0.0,M,0.0,M,,*6D
$GPGSA,A,3,01,02,03,04,05,06,07,08,09,10,11,12,1.0,1.0,1.0*30
$GPRMC,080912.230,A,4831.139,N,00744.211,E,022.1,097.5,030523,000.0,W*74
$GPGGA,080913.230,4831.138,N,00744.220,E,1,12,1.0,0.0,M,0.0,M,,*6F
$GPGSA,A,3,01,02,03,04,05,06,07,08,09,10,11,12,1.0,1.0,1.0*30
$GPRMC,080913.230,A,4831.138,N,00744.220,E,026.3,096.7,030523,000.0,W*73
$GPGGA,080914.230,4831.137,N,00744.231,E,1,12,1.0,0.0,M,0.0,M,,*67
$GPGSA,A,3,01,02,03,04,05,06,07,08,09,10,11,12,1.0,1.0,1.0*30
$GPRMC,080914.230,A,4831.137,N,00744.231,E,024.4,091.9,030523,000.0,W*77
$GPGGA,080915.230,4831.137,N,00744.241,E,1,12,1.0,0.0,M,0.0,M,,*61
$GPGSA,A,3,01,02,03,04,05,06,07,08,09,10,11,12,1.0,1.0,1.0*30
$GPRMC,080915.230,A,4831.137,N,00744.241,E,027.9,091.8,030523,000.0,W*7E
$GPGGA,080916.230,4831.136,N,00744.252,E,1,12,1.0,0.0,M,0.0,M,,*61
$GPGSA,A,3,01,02,03,04,05,06,07,08,09,10,11,12,1.0,1.0,1.0*30
$GPRMC,080916.230,A,4831.136,N,00744.252,E,021.5,088.1,030523,000.0,W*75
$GPGGA,080917.230,4831.137,N,00744.261,E,1,12,1.0,0.0,M,0.0,M,,*61
$GPGSA,A,3,01,02,03,04,05,06,07,08,09,10,11,12,1.0,1.0,1.0*30
$GPRMC,080917.230,A,4831.137,N,00744.261,E,024.3,089.1,030523,000.0,W*77
$GPGGA,080918.230,4831.137,N,00744.272,E,1,12,1.0,0.0,M,0.0,M,,*6C
$GPGSA,A,3,01,02,03,04,05,06,07,08,09,10,11,12,1.0,1.0,1.0*30
$GPRMC,080918.230,A,4831.137,N,00744.272,E,023.6,087.2,030523,000.0,W*75
$GPGGA,080919.230,4831.137,N,00744.281,E,1,12,1.0,0.0,M,0.0,M,,*61
$GPGSA,A,3,01,02,03,04,05,06,07,08,09,10,11,12,1.0,1.0,1.0*30
$GPRMC,080919.230,A,4831.137,N,00744.281,E,024.3,081.7,030523,000.0,W*79
$GPGGA,080920.230,4831.139,N,00744.291,E,1,12,1.0,0.0,M,0.0,M,,*64
$GPGSA,A,3,01,02,03,04,05,06,07,08,09,10,11,12,1.0,1.0,1.0*30
$GPRMC,080920.230,A,4831.139,N,00744.291,E,022.2,082.7,030523,000.0,W*78
$GPGGA,080921.230,4831.140,N,00744.301,E,1,12,1.0,0.0,M,0.0,M,,*63
$GPGSA,A,3,01,02,03,04,05,06,07,08,09,10,11,12,1.0,1.0,1.0*30
$GPRMC,080921.230,A,4831.140,N,00744.301,E,024.0,081.1,030523,000.0,W*7E
$GPGGA,080922.230,4831.141,N,00744.310,E,1,12,1.0,0.0,M,0.0,M,,*61
$GPGSA,A,3,01,02,03,04,05,06,07,08,09,10,11,12,1.0,1.0,1.0*30
$GPRMC,080922.230,A,4831.141,N,00744.310,E,031.1,076.6,030523,000.0,W*76
$GPGGA,080923.230,4831.144,N,00744.323,E,1,12,1.0,0.0,M,0.0,M,,*65
$GPGSA,A,3,01,02,03,04,05,06,07,08,09,10,11,12,1.0,1.0,1.0*30
$GPRMC,080923.230,A,4831.144,N,00744.323,E,029.1,078.6,030523,000.0,W*75
$GPGGA,080924.230,4831.147,N,00744.334,E,1,12,1.0,0.0,M,0.0,M,,*67
$GPGSA,A,3,01,02,03,04,05,06,07,08,09,10,11,12,1.0,1.0,1.0*30
$GPRMC,080924.230,A,4831.147,N,00744.334,E,031.4,072.5,030523,000.0,W*72
$GPGGA,080925.230,4831.150,N,00744.346,E,1,12,1.0,0.0,M,0.0,M,,*65
$GPGSA,A,3,01,02,03,04,05,06,07,08,09,10,11,12,1.0,1.0,1.0*30
$GPRMC,080925.230,A,4831.150,N,00744.346,E,027.4,071.9,030523,000.0,W*78
$GPGGA,080926.230,4831.154,N,00744.356,E,1,12,1.0,0.0,M,0.0,M,,*63
$GPGSA,A,3,01,02,03,04,05,06,07,08,09,10,11,12,1.0,1.0,1.0*30
$GPRMC,080926.230,A,4831.154,N,00744.356,E,017.3,068.5,030523,000.0,W*7E
$GPGGA,080927.230,4831.156,N,00744.363,E,1,12,1.0,0.0,M,0.0,M,,*66
$GPGSA,A,3,01,02,03,04,05,06,07,08,09,10,11,12,1.0,1.0,1.0*30
$GPRMC,080927.230,A,4831.156,N,00744.363,E,013.6,067.0,030523,000.0,W*70
$GPGGA,080928.230,4831.158,N,00744.367,E,1,12,1.0,0.0,M,0.0,M,,*63
$GPGSA,A,3,01,02,03,04,05,06,07,08,09,10,11,12,1.0,1.0,1.0*30
$GPRMC,080928.230,A,4831.158,N,00744.367,E,016.0,067.2,030523,000.0,W*74
$GPGGA,080929.230,4831.161,N,00744.373,E,1,12,1.0,0.0,M,0.0,M,,*6D
$GPGSA,A,3,01,02,03,04,05,06,07,08,09,10,11,12,1.0,1.0,1.0*30
$GPRMC,080929.230,A,4831.161,N,00744.373,E,017.2,060.4,030523,000.0,W*78
$GPGGA,080930.230,4831.164,N,00744.379,E,1,12,1.0,0.0,M,0.0,M,,*6A
$GPGSA,A,3,01,02,03,04,05,06,07,08,09,10,11,12,1.0,1.0,1.0*30
$GPRMC,080930.230,A,4831.164,N,00744.379,E,016.7,322.9,030523,000.0,W*73
$GPGGA,080931.230,4831.168,N,00744.375,E,1,12,1.0,0.0,M,0.0,M,,*6B
$GPGSA,A,3,01,02,03,04,05,06,07,08,09,10,11,12,1.0,1.0,1.0*30
$GPRMC,080931.230,A,4831.168,N,00744.375,E,010.6,313.1,030523,000.0,W*7F
$GPGGA,080932.230,4831.170,N,00744.373,E,1,12,1.0,0.0,M,0.0,M,,*67
$GPGSA,A,3,01,02,03,04,05,06,07,08,09,10,11,12,1.0,1.0,1.0*30
$GPRMC,080932.230,A,4831.170,N,00744.373,E,014.3,313.3,030523,000.0,W*70
$GPGGA,080933.230,4831.173,N,00744.369,E,1,12,1.0,0.0,M,0.0,M,,*6E
$GPGSA,A,3,01,02,03,04,05,06,07,08,09,10,11,12,1.0,1.0,1.0*30
$GPRMC,080933.230,A,4831.173,N,00744.369,E,014.3,313.3,030523,000.0,W*79
$GPGGA,080934.230,4831.177,N,00744.366,E,1,12,1.0,0.0,M,0.0,M,,*62
$GPGSA,A,3,01,02,03,04,05,06,07,08,09,10,11,12,1.0,1.0,1.0*30
$GPRMC,080934.230,A,4831.177,N,00744.366,E,014.1,313.5,030523,000.0,W*71
$GPGGA,080935.230,4831.180,N,00744.363,E,1,12,1.0,0.0,M,0.0,M,,*6E
$GPGSA,A,3,01,02,03,04,05,06,07,08,09,10,11,12,1.0,1.0,1.0*30
$GPRMC,080935.230,A,4831.180,N,00744.363,E,015.3,314.3,030523,000.0,W*7F
$GPGGA,080936.230,4831.183,N,00744.359,E,1,12,1.0,0.0,M,0.0,M,,*67
$GPGSA,A,3,01,02,03,04,05,06,07,08,09,10,11,12,1.0,1.0,1.0*30
$GPRMC,080936.230,A,4831.183,N,00744.359,E,013.8,312.2,030523,000.0,W*7C
$GPGGA,080937.230,4831.186,N,00744.356,E,1,12,1.0,0.0,M,0.0,M,,*6C
$GPGSA,A,3,01,02,03,04,05,06,07,08,09,10,11,12,1.0,1.0,1.0*30
$GPRMC,080937.230,A,4831.186,N,00744.356,E,017.5,313.8,030523,000.0,W*75
$GPGGA,080938.230,4831.190,N,00744.351,E,1,12,1.0,0.0,M,0.0,M,,*63
$GPGSA,A,3,01,02,03,04,05,06,07,08,09,10,11,12,1.0,1.0,1.0*30
$GPRMC,080938.230,A,4831.190,N,00744.351,E,015.3,313.7,030523,000.0,W*71
$GPGGA,080939.230,4831.194,N,00744.348,E,1,12,1.0,0.0,M,0.0,M,,*6E
$GPGSA,A,3,01,02,03,04,05,06,07,08,09,10,11,12,1.0,1.0,1.0*30
$GPRMC,080939.230,A,4831.194,N,00744.348,E,016.4,311.8,030523,000.0,W*75
$GPGGA,080940.230,4831.198,N,00744.344,E,1,12,1.0,0.0,M,0.0,M,,*60
$GPGSA,A,3,01,02,03,04,05,06,07,08,09,10,11,12,1.0,1.0,1.0*30
$GPRMC,080940.230,A,4831.198,N,00744.344,E,017.0,313.7,030523,000.0,W*73
$GPGGA,080941.230,4831.201,N,00744.340,E,1,12,1.0,0.0,M,0.0,M,,*66
$GPGSA,A,3,01,02,03,04,05,06,07,08,09,10,11,12,1.0,1.0,1.0*30
$GPRMC,080941.230,A,4831.201,N,00744.340,E,015.0,312.9,030523,000.0,W*78
$GPGGA,080942.230,4831.205,N,00744.336,E,1,12,1.0,0.0,M,0.0,M,,*60
$GPGSA,A,3,01,02,03,04,05,06,07,08,09,10,11,12,1.0,1.0,1.0*30
$GPRMC,080942.230,A,4831.205,N,00744.336,E,014.2,313.4,030523,000.0,W*71
$GPGGA,080943.230,4831.208,N,00744.332,E,1,12,1.0,0.0,M,0.0,M,,*68
$GPGSA,A,3,01,02,03,04,05,06,07,08,09,10,11,12,1.0,1.0,1.0*30
$GPRMC,080943.230,A,4831.208,N,00744.332,E,013.5,314.3,030523,000.0,W*79
$GPGGA,080944.230,4831.211,N,00744.329,E,1,12,1.0,0.0,M,0.0,M,,*6D
$GPGSA,A,3,01,02,03,04,05,06,07,08,09,10,11,12,1.0,1.0,1.0*30
$GPRMC,080944.230,A,4831.211,N,00744.329,E,018.8,313.3,030523,000.0,W*7D
$GPGGA,080945.230,4831.215,N,00744.325,E,1,12,1.0,0.0,M,0.0,M,,*64
$GPGSA,A,3,01,02,03,04,05,06,07,08,09,10,11,12,1.0,1.0,1.0*30
$GPRMC,080945.230,A,4831.215,N,00744.325,E,014.4,313.0,030523,000.0,W*77
$GPGGA,080946.230,4831.219,N,00744.321,E,1,12,1.0,0.0,M,0.0,M,,*6F
$GPGSA,A,3,01,02,03,04,05,06,07,08,09,10,11,12,1.0,1.0,1.0*30
$GPRMC,080946.230,A,4831.219,N,00744.321,E,012.9,313.2,030523,000.0,W*75
$GPGGA,080947.230,4831.222,N,00744.318,E,1,12,1.0,0.0,M,0.0,M,,*6C
$GPGSA,A,3,01,02,03,04,05,06,07,08,09,10,11,12,1.0,1.0,1.0*30
$GPRMC,080947.230,A,4831.222,N,00744.318,E,013.7,314.4,030523,000.0,W*78
$GPGGA,080948.230,4831.225,N,00744.315,E,1,12,1.0,0.0,M,0.0,M,,*69
$GPGSA,A,3,01,02,03,04,05,06,07,08,09,10,11,12,1.0,1.0,1.0*30
$GPRMC,080948.230,A,4831.225,N,00744.315,E,016.2,312.1,030523,000.0,W*7E
$GPGGA,080949.230,4831.228,N,00744.311,E,1,12,1.0,0.0,M,0.0,M,,*61
$GPGSA,A,3,01,02,03,04,05,06,07,08,09,10,11,12,1.0,1.0,1.0*30
$GPRMC,080949.230,A,4831.228,N,00744.311,E,012.7,313.4,030523,000.0,W*73
$GPGGA,080950.230,4831.231,N,00744.308,E,1,12,1.0,0.0,M,0.0,M,,*69
$GPGSA,A,3,01,02,03,04,05,06,07,08,09,10,11,12,1.0,1.0,1.0*30
$GPRMC,080950.230,A,4831.231,N,00744.308,E,013.3,312.6,030523,000.0,W*7D
$GPGGA,080951.230,4831.234,N,00744.305,E,1,12,1.0,0.0,M,0.0,M,,*60
$GPGSA,A,3,01,02,03,04,05,06,07,08,09,10,11,12,1.0,1.0,1.0*30
$GPRMC,080951.230,A,4831.234,N,00744.305,E,014.7,313.9,030523,000.0,W*79
$GPGGA,080952.230,4831.238,N,00744.301,E,1,12,1.0,0.0,M,0.0,M,,*6B
$GPGSA,A,3,01,02,03,04,05,06,07,08,09,10,11,12,1.0,1.0,1.0*30
$GPRMC,080952.230,A,4831.238,N,00744.301,E,011.8,313.1,030523,000.0,W*70
$GPGGA,080953.230,4831.240,N,00744.298,E,1,12,1.0,0.0,M,0.0,M,,*64
$GPGSA,A,3,01,02,03,04,05,06,07,08,09,10,11,12,1.0,1.0,1.0*30
$GPRMC,080953.230,A,4831.240,N,00744.298,E,014.4,313.0,030523,000.0,W*77
$GPGGA,080954.230,4831.243,N,00744.295,E,1,12,1.0,0.0,M,0.0,M,,*6D
$GPGSA,A,3,01,02,03,04,05,06,07,08,09,10,11,12,1.0,1.0,1.0*30
$GPRMC,080954.230,A,4831.243,N,00744.295,E,012.0,052.4,030523,000.0,W*7E
$GPGGA,080955.230,4831.246,N,00744.298,E,1,12,1.0,0.0,M,0.0,M,,*64
$GPGSA,A,3,01,02,03,04,05,06,07,08,09,10,11,12,1.0,1.0,1.0*30
$GPRMC,080955.230,A,4831.246,N,00744.298,E,011.9,053.6,030523,000.0,W*7E
$GPGGA,080956.230,4831.248,N,00744.301,E,1,12,1.0,0.0,M,0.0,M,,*68
$GPGSA,A,3,01,02,03,04,05,06,07,08,09,10,11,12,1.0,1.0,1.0*30
$GPRMC,080956.230,A,4831.248,N,00744.301,E,011.5,055.4,030523,000.0,W*7A
$GPGGA,080957.230,4831.251,N,00744.305,E,1,12,1.0,0.0,M,0.0,M,,*65
$GPGSA,A,3,01,02,03,04,05,06,07,08,09,10,11,12,1.0,1.0,1.0*30
$GPRMC,080957.230,A,4831.251,N,00744.305,E,015.7,051.6,030523,000.0,W*77
$GPGGA,080958.230,4831.254,N,00744.309,E,1,12,1.0,0.0,M,0.0,M,,*63
$GPGSA,A,3,01,02,03,04,05,06,07,08,09,10,11,12,1.0,1.0,1.0*30
$GPRMC,080958.230,A,4831.254,N,00744.309,E,011.6,047.1,030523,000.0,W*74
$GPGGA,080959.230,4831.257,N,00744.312,E,1,12,1.0,0.0,M,0.0,M,,*6B
$GPGSA,A,3,01,02,03,04,05,06,07,08,09,10,11,12,1.0,1.0,1.0*30
$GPRMC,080959.230,A,4831.257,N,00744.312,E,016.2,034.0,030523,000.0,W*7A
$GPGGA,081000.230,4831.261,N,00744.314,E,1,12,1.0,0.0,M,0.0,M,,*6C
$GPGSA,A,3,01,02,03,04,05,06,07,08,09,10,11,12,1.0,1.0,1.0*30
$GPRMC,081000.230,A,4831.261,N,00744.314,E,014.8,029.9,030523,000.0,W*70
$GPGGA,081001.230,4831.265,N,00744.317,E,1,12,1.0,0.0,M,0.0,M,,*6A
$GPGSA,A,3,01,02,03,04,05,06,07,08,09,10,11,12,1.0,1.0,1.0*30
$GPRMC,081001.230,A,4831.265,N,00744.317,E,015.4,024.2,030523,000.0,W*7D
$GPGGA,081002.230,4831.269,N,00744.319,E,1,12,1.0,0.0,M,0.0,M,,*6B
$GPGSA,A,3,01,02,03,04,05,06,07,08,09,10,11,12,1.0,1.0,1.0*30
$GPRMC,081002.230,A,4831.269,N,00744.319,E,017.0,022.0,030523,000.0,W*7E
$GPGGA,081003.230,4831.273,N,00744.320,E,1,12,1.0,0.0,M,0.0,M,,*6B
$GPGSA,A,3,01,02,03,04,05,06,07,08,09,10,11,12,1.0,1.0,1.0*30
$GPRMC,081003.230,A,4831.273,N,00744.320,E,015.9,011.4,030523,000.0,W*71
$GPGGA,081004.230,4831.278,N,00744.321,E,1,12,1.0,0.0,M,0.0,M,,*66
$GPGSA,A,3,01,02,03,04,05,06,07,08,09,10,11,12,1.0,1.0,1.0*30
$GPRMC,081004.230,A,4831.278,N,00744.321,E,013.5,006.1,030523,000.0,W*75
$GPGGA,081005.230,4831.281,N,00744.322,E,1,12,1.0,0.0,M,0.0,M,,*62
$GPGSA,A,3,01,02,03,04,05,06,07,08,09,10,11,12,1.0,1.0,1.0*30
$GPRMC,081005.230,A,4831.281,N,00744.322,E,013.3,346.4,030523,000.0,W*75
$GPGGA,081006.230,4831.285,N,00744.321,E,1,12,1.0,0.0,M,0.0,M,,*66
$GPGSA,A,3,01,02,03,04,05,06,07,08,09,10,11,12,1.0,1.0,1.0*30
$GPRMC,081006.230,A,4831.285,N,00744.321,E,012.7,347.1,030523,000.0,W*70
$GPGGA,081007.230,4831.289,N,00744.320,E,1,12,1.0,0.0,M,0.0,M,,*6A
$GPGSA,A,3,01,02,03,04,05,06,07,08,09,10,11,12,1.0,1.0,1.0*30
$GPRMC,081007.230,A,4831.289,N,00744.320,E,017.0,343.2,030523,000.0,W*79
$GPGGA,081008.230,4831.293,N,00744.319,E,1,12,1.0,0.0,M,0.0,M,,*64
$GPGSA,A,3,01,02,03,04,05,06,07,08,09,10,11,12,1.0,1.0,1.0*30
$GPRMC,081008.230,A,4831.293,N,00744.319,E,010.0,077.1,030523,000.0,W*77
$GPGGA,081009.230,4831.294,N,00744.323,E,1,12,1.0,0.0,M,0.0,M,,*6B
$GPGSA,A,3,01,02,03,04,05,06,07,08,09,10,11,12,1.0,1.0,1.0*30
$GPRMC,081009.230,A,4831.294,N,00744.323,E,010.7,077.6,030523,000.0,W*78
$GPGGA,081010.230,4831.295,N,00744.327,E,1,12,1.0,0.0,M,0.0,M,,*66
$GPGSA,A,3,01,02,03,04,05,06,07,08,09,10,11,12,1.0,1.0,1.0*30
$GPRMC,081010.230,A,4831.295,N,00744.327,E,011.4,078.4,030523,000.0,W*7A
$GPGGA,081011.230,4831.296,N,00744.331,E,1,12,1.0,0.0,M,0.0,M,,*63
$GPGSA,A,3,01,02,03,04,05,06,07,08,09,10,11,12,1.0,1.0,1.0*30
$GPRMC,081011.230,A,4831.296,N,00744.331,E,012.6,077.7,030523,000.0,W*72
$GPGGA,081012.230,4831.297,N,00744.336,E,1,12,1.0,0.0,M,0.0,M,,*66
$GPGSA,A,3,01,02,03,04,05,06,07,08,09,10,11,12,1.0,1.0,1.0*30
$GPRMC,081012.230,A,4831.297,N,00744.336,E,012.2,077.2,030523,000.0,W*76
$GPGGA,081013.230,4831.298,N,00744.341,E,1,12,1.0,0.0,M,0.0,M,,*68
$GPGSA,A,3,01,02,03,04,05,06,07,08,09,10,11,12,1.0,1.0,1.0*30
$GPRMC,081013.230,A,4831.298,N,00744.341,E,011.2,079.2,030523,000.0,W*75
$GPGGA,081014.230,4831.299,N,00744.346,E,1,12,1.0,0.0,M,0.0,M,,*69
$GPGSA,A,3,01,02,03,04,05,06,07,08,09,10,11,12,1.0,1.0,1.0*30
$GPRMC,081014.230,A,4831.299,N,00744.346,E,010.7,075.7,030523,000.0,W*79
$GPGGA,081015.230,4831.300,N,00744.350,E,1,12,1.0,0.0,M,0.0,M,,*6E
$GPGSA,A,3,01,02,03,04,05,06,07,08,09,10,11,12,1.0,1.0,1.0*30
$GPRMC,081015.230,A,4831.300,N,00744.350,E,011.8,078.4,030523,000.0,W*7E
$GPGGA,081016.230,4831.301,N,00744.355,E,1,12,1.0,0.0,M,0.0,M,,*69
$GPGSA,A,3,01,02,03,04,05,06,07,08,09,10,11,12,1.0,1.0,1.0*30
$GPRMC,081016.230,A,4831.301,N,00744.355,E,012.5,076.6,030523,000.0,W*7B
$GPGGA,081017.230,4831.302,N,00744.360,E,1,12,1.0,0.0,M,0.0,M,,*6D
$GPGSA,A,3,01,02,03,04,05,06,07,08,09,10,11,12,1.0,1.0,1.0*30
$GPRMC,081017.230,A,4831.302,N,00744.360,E,014.7,079.5,030523,000.0,W*77
$GPGGA,081018.230,4831.303,N,00744.365,E,1,12,1.0,0.0,M,0.0,M,,*66
$GPGSA,A,3,01,02,03,04,05,06,07,08,09,10,11,12,1.0,1.0,1.0*30
$GPRMC,081018.230,A,4831.303,N,00744.365,E,013.9,077.2,030523,000.0,W*7C
$GPGGA,081019.230,4831.305,N,00744.371,E,1,12,1.0,0.0,M,0.0,M,,*64
$GPGSA,A,3,01,02,03,04,05,06,07,08,09,10,11,12,1.0,1.0,1.0*30
$GPRMC,081019.230,A,4831.305,N,00744.371,E,011.1,076.2,030523,000.0,W*75
$GPGGA,081020.230,4831.306,N,00744.375,E,1,12,1.0,0.0,M,0.0,M,,*69
$GPGSA,A,3,01,02,03,04,05,06,07,08,09,10,11,12,1.0,1.0,1.0*30
$GPRMC,081020.230,A,4831.306,N,00744.375,E,013.6,078.9,030523,000.0,W*78
$GPGGA,081021.230,4831.307,N,00744.381,E,1,12,1.0,0.0,M,0.0,M,,*62
$GPGSA,A,3,01,02,03,04,05,06,07,08,09,10,11,12,1.0,1.0,1.0*30
$GPRMC,081021.230,A,4831.307,N,00744.381,E,012.1,077.5,030523,000.0,W*76
$GPGGA,081022.230,4831.308,N,00744.386,E,1,12,1.0,0.0,M,0.0,M,,*69
$GPGSA,A,3,01,02,03,04,05,06,07,08,09,10,11,12,1.0,1.0,1.0*30
$GPRMC,081022.230,A,4831.308,N,00744.386,E,013.6,079.5,030523,000.0,W*75
$GPGGA,081023.230,4831.309,N,00744.391,E,1,12,1.0,0.0,M,0.0,M,,*6F
$GPGSA,A,3,01,02,03,04,05,06,07,08,09,10,11,12,1.0,1.0,1.0*30
$GPRMC,081023.230,A,4831.309,N,00744.391,E,013.4,077.9,030523,000.0,W*73
$GPGGA,081024.230,4831.310,N,00744.396,E,1,12,1.0,0.0,M,0.0,M,,*67
$GPGSA,A,3,01,02,03,04,05,06,07,08,09,10,11,12,1.0,1.0,1.0*30
$GPRMC,081024.230,A,4831.310,N,00744.396,E,012.4,078.1,030523,000.0,W*7D
$GPGGA,081025.230,4831.311,N,00744.401,E,1,12,1.0,0.0,M,0.0,M,,*6E
$GPGSA,A,3,01,02,03,04,05,06,07,08,09,10,11,12,1.0,1.0,1.0*30
$GPRMC,081025.230,A,4831.311,N,00744.401,E,013.1,077.9,030523,000.0,W*77
$GPGGA,081026.230,4831.312,N,00744.407,E,1,12,1.0,0.0,M,0.0,M,,*68
$GPGSA,A,3,01,02,03,04,05,06,07,08,09,10,11,12,1.0,1.0,1.0*30
$GPRMC,081026.230,A,4831.312,N,00744.407,E,015.1,077.2,030523,000.0,W*7C
$GPGGA,081027.230,4831.313,N,00744.413,E,1,12,1.0,0.0,M,0.0,M,,*6D
$GPGSA,A,3,01,02,03,04,05,06,07,08,09,10,11,12,1.0,1.0,1.0*30
$GPRMC,081027.230,A,4831.313,N,00744.413,E,013.3,077.8,030523,000.0,W*77
$GPGGA,081028.230,4831.315,N,00744.418,E,1,12,1.0,0.0,M,0.0,M,,*6F
$GPGSA,A,3,01,02,03,04,05,06,07,08,09,10,11,12,1.0,1.0,1.0*30
$GPRMC,081028.230,A,4831.315,N,00744.418,E,014.3,077.2,030523,000.0,W*78
$GPGGA,081029.230,4831.316,N,00744.424,E,1,12,1.0,0.0,M,0.0,M,,*62
$GPGSA,A,3,01,02,03,04,05,06,07,08,09,10,11,12,1.0,1.0,1.0*30
$GPRMC,081029.230,A,4831.316,N,00744.424,E,012.2,078.2,030523,000.0,W*7D
$GPGGA,081030.230,4831.317,N,00744.429,E,1,12,1.0,0.0,M,0.0,M,,*66
$GPGSA,A,3,01,02,03,04,05,06,07,08,09,10,11,12,1.0,1.0,1.0*30
$GPRMC,081030.230,A,4831.317,N,00744.429,E,012.8,077.6,030523,000.0,W*78
$GPGGA,081031.230,4831.318,N,00744.434,E,1,12,1.0,0.0,M,0.0,M,,*64
$GPGSA,A,3,01,02,03,04,05,06,07,08,09,10,11,12,1.0,1.0,1.0*30
$GPRMC,081031.230,A,4831.318,N,00744.434,E,013.6,078.9,030523,000.0,W*75
$GPGGA,081032.230,4831.319,N,00744.439,E,1,12,1.0,0.0,M,0.0,M,,*6B
$GPGSA,A,3,01,02,03,04,05,06,07,08,09,10,11,12,1.0,1.0,1.0*30
$GPRMC,081032.230,A,4831.319,N,00744.439,E,012.1,077.1,030523,000.0,W*7B
$GPGGA,081033.230,4831.320,N,00744.444,E,1,12,1.0,0.0,M,0.0,M,,*6A
$GPGSA,A,3,01,02,03,04,05,06,07,08,09,10,11,12,1.0,1.0,1.0*30
$GPRMC,081033.230,A,4831.320,N,00744.444,E,011.5,077.1,030523,000.0,W*7D
$GPGGA,081034.230,4831.321,N,00744.448,E,1,12,1.0,0.0,M,0.0,M,,*60
$GPGSA,A,3,01,02,03,04,05,06,07,08,09,10,11,12,1.0,1.0,1.0*30
$GPRMC,081034.230,A,4831.321,N,00744.448,E,015.4,079.0,030523,000.0,W*7D
$GPGGA,081035.230,4831.322,N,00744.455,E,1,12,1.0,0.0,M,0.0,M,,*6E
$GPGSA,A,3,01,02,03,04,05,06,07,08,09,10,11,12,1.0,1.0,1.0*30
$GPRMC,081035.230,A,4831.322,N,00744.455,E,007.9,067.8,030523,000.0,W*7A
$GPGGA,081036.230,4831.324,N,00744.457,E,1,12,1.0,0.0,M,0.0,M,,*69
$GPGSA,A,3,01,02,03,04,05,06,07,08,09,10,11,12,1.0,1.0,1.0*30
$GPRMC,081036.230,A,4831.324,N,00744.457,E,013.6,341.3,030523,000.0,W*7B
$GPGGA,081037.230,4831.327,N,00744.456,E,1,12,1.0,0.0,M,0.0,M,,*6A
$GPGSA,A,3,01,02,03,04,05,06,07,08,09,10,11,12,1.0,1.0,1.0*30
$GPRMC,081037.230,A,4831.327,N,00744.456,E,012.2,334.1,030523,000.0,W*7D
$GPGGA,081038.230,4831.330,N,00744.455,E,1,12,1.0,0.0,M,0.0,M,,*60
$GPGSA,A,3,01,02,03,04,05,06,07,08,09,10,11,12,1.0,1.0,1.0*30
$GPRMC,081038.230,A,4831.330,N,00744.455,E,011.9,331.6,030523,000.0,W*7D
$GPGGA,081039.230,4831.334,N,00744.453,E,1,12,1.0,0.0,M,0.0,M,,*63
$GPGSA,A,3,01,02,03,04,05,06,07,08,09,10,11,12,1.0,1.0,1.0*30
$GPRMC,081039.230,A,4831.334,N,00744.453,E,013.5,327.3,030523,000.0,W*72
$GPGGA,081040.230,4831.337,N,00744.451,E,1,12,1.0,0.0,M,0.0,M,,*6C
$GPGSA,A,3,01,02,03,04,05,06,07,08,09,10,11,12,1.0,1.0,1.0*30
$GPRMC,081040.230,A,4831.337,N,00744.451,E,015.1,325.6,030523,000.0,W*78
$GPGGA,081041.230,4831.341,N,00744.448,E,1,12,1.0,0.0,M,0.0,M,,*64
$GPGSA,A,3,01,02,03,04,05,06,07,08,09,10,11,12,1.0,1.0,1.0*30
$GPRMC,081041.230,A,4831.341,N,00744.448,E,012.0,326.1,030523,000.0,W*72
$GPGGA,081042.230,4831.344,N,00744.446,E,1,12,1.0,0.0,M,0.0,M,,*6C
$GPGSA,A,3,01,02,03,04,05,06,07,08,09,10,11,12,1.0,1.0,1.0*30
$GPRMC,081042.230,A,4831.344,N,00744.446,E,012.1,320.2,030523,000.0,W*7E
$GPGGA,081043.230,4831.347,N,00744.444,E,1,12,1.0,0.0,M,0.0,M,,*6C
$GPGSA,A,3,01,02,03,04,05,06,07,08,09,10,11,12,1.0,1.0,1.0*30
$GPRMC,081043.230,A,4831.347,N,00744.444,E,013.4,319.4,030523,000.0,W*76
$GPGGA,081044.230,4831.350,N,00744.441,E,1,12,1.0,0.0,M,0.0,M,,*68
$GPGSA,A,3,01,02,03,04,05,06,07,08,09,10,11,12,1.0,1.0,1.0*30
$GPRMC,081044.230,A,4831.350,N,00744.441,E,011.5,320.8,030523,000.0,W*77
$GPGGA,081045.230,4831.353,N,00744.439,E,1,12,1.0,0.0,M,0.0,M,,*65
$GPGSA,A,3,01,02,03,04,05,06,07,08,09,10,11,12,1.0,1.0,1.0*30
$GPRMC,081045.230,A,4831.353,N,00744.439,E,012.0,319.2,030523,000.0,W*7C
$GPGGA,081046.230,4831.356,N,00744.436,E,1,12,1.0,0.0,M,0.0,M,,*6C
$GPGSA,A,3,01,02,03,04,05,06,07,08,09,10,11,12,1.0,1.0,1.0*30
$GPRMC,081046.230,A,4831.356,N,00744.436,E,014.8,314.1,030523,000.0,W*75
$GPGGA,081047.230,4831.359,N,00744.433,E,1,12,1.0,0.0,M,0.0,M,,*67
$GPGSA,A,3,01,02,03,04,05,06,07,08,09,10,11,12,1.0,1.0,1.0*30
$GPRMC,081047.230,A,4831.359,N,00744.433,E,012.0,312.2,030523,000.0,W*75
$GPGGA,081048.230,4831.362,N,00744.430,E,1,12,1.0,0.0,M,0.0,M,,*63
$GPGSA,A,3,01,02,03,04,05,06,07,08,09,10,11,12,1.0,1.0,1.0*30
$GPRMC,081048.230,A,4831.362,N,00744.430,E,014.1,308.6,030523,000.0,W*79
$GPGGA,081049.230,4831.365,N,00744.426,E,1,12,1.0,0.0,M,0.0,M,,*62
$GPGSA,A,3,01,02,03,04,05,06,07,08,09,10,11,12,1.0,1.0,1.0*30
$GPRMC,081049.230,A,4831.365,N,00744.426,E,013.7,309.3,030523,000.0,W*7D
$GPGGA,081050.230,4831.368,N,00744.422,E,1,12,1.0,0.0,M,0.0,M,,*63
$GPGSA,A,3,01,02,03,04,05,06,07,08,09,10,11,12,1.0,1.0,1.0*30
$GPRMC,081050.230,A,4831.368,N,00744.422,E,011.5,307.1,030523,000.0,W*70
$GPGGA,081051.230,4831.370,N,00744.419,E,1,12,1.0,0.0,M,0.0,M,,*63
$GPGSA,A,3,01,02,03,04,05,06,07,08,09,10,11,12,1.0,1.0,1.0*30
$GPRMC,081051.230,A,4831.370,N,00744.419,E,012.7,307.7,030523,000.0,W*77
$GPGGA,081052.230,4831.373,N,00744.416,E,1,12,1.0,0.0,M,0.0,M,,*6C
$GPGSA,A,3,01,02,03,04,05,06,07,08,09,10,11,12,1.0,1.0,1.0*30
$GPRMC,081052.230,A,4831.373,N,00744.416,E,014.2,307.0,030523,000.0,W*7C
$GPGGA,081053.230,4831.376,N,00744.412,E,1,12,1.0,0.0,M,0.0,M,,*6C
$GPGSA,A,3,01,02,03,04,05,06,07,08,09,10,11,12,1.0,1.0,1.0*30
$GPRMC,081053.230,A,4831.376,N,00744.412,E,013.0,306.7,030523,000.0,W*7F
$GPGGA,081054.230,4831.378,N,00744.408,E,1,12,1.0,0.0,M,0.0,M,,*6E
$GPGSA,A,3,01,02,03,04,05,06,07,08,09,10,11,12,1.0,1.0,1.0*30
$GPRMC,081054.230,A,4831.378,N,00744.408,E,013.2,302.3,030523,000.0,W*7F
$GPGGA,081055.230,4831.381,N,00744.404,E,1,12,1.0,0.0,M,0.0,M,,*65
$GPGSA,A,3,01,02,03,04,05,06,07,08,09,10,11,12,1.0,1.0,1.0*30
$GPRMC,081055.230,A,4831.381,N,00744.404,E,009.3,299.1,030523,000.0,W*7F
$GPGGA,081056.230,4831.383,N,00744.401,E,1,12,1.0,0.0,M,0.0,M,,*61
$GPGSA,A,3,01,02,03,04,05,06,07,08,09,10,11,12,1.0,1.0,1.0*30
$GPRMC,081056.230,A,4831.383,N,00744.401,E,010.2,300.9,030523,000.0,W*7B
$GPGGA,081057.230,4831.384,N,00744.398,E,1,12,1.0,0.0,M,0.0,M,,*60
$GPGSA,A,3,01,02,03,04,05,06,07,08,09,10,11,12,1.0,1.0,1.0*30
$GPRMC,081057.230,A,4831.384,N,00744.398,E,011.6,300.3,030523,000.0,W*75
$GPGGA,081058.230,4831.387,N,00744.394,E,1,12,1.0,0.0,M,0.0,M,,*60
$GPGSA,A,3,01,02,03,04,05,06,07,08,09,10,11,12,1.0,1.0,1.0*30
$GPRMC,081058.230,A,4831.387,N,00744.394,E,010.9,301.7,030523,000.0,W*7E
$GPGGA,081059.230,4831.389,N,00744.391,E,1,12,1.0,0.0,M,0.0,M,,*6A
$GPGSA,A,3,01,02,03,04,05,06,07,08,09,10,11,12,1.0,1.0,1.0*30
$GPRMC,081059.230,A,4831.389,N,00744.391,E,012.1,299.6,030523,000.0,W*7F
$GPGGA,081100.230,4831.391,N,00744.387,E,1,12,1.0,0.0,M,0.0,M,,*69
$GPGSA,A,3,01,02,03,04,05,06,07,08,09,10,11,12,1.0,1.0,1.0*30
$GPRMC,081100.230,A,4831.391,N,00744.387,E,010.9,299.2,030523,000.0,W*72
$GPGGA,081101.230,4831.393,N,00744.383,E,1,12,1.0,0.0,M,0.0,M,,*6E
$GPGSA,A,3,01,02,03,04,05,06,07,08,09,10,11,12,1.0,1.0,1.0*30
$GPRMC,081101.230,A,4831.393,N,00744.383,E,013.9,297.7,030523,000.0,W*7D
$GPGGA,081102.230,4831.395,N,00744.379,E,1,12,1.0,0.0,M,0.0,M,,*6E
$GPGSA,A,3,01,02,03,04,05,06,07,08,09,10,11,12,1.0,1.0,1.0*30
$GPRMC,081102.230,A,4831.395,N,00744.379,E,012.6,294.3,030523,000.0,W*74
$GPGGA,081103.230,4831.397,N,00744.374,E,1,12,1.0,0.0,M,0.0,M,,*60
$GPGSA,A,3,01,02,03,04,05,06,07,08,09,10,11,12,1.0,1.0,1.0*30
$GPRMC,081103.230,A,4831.397,N,00744.374,E,011.5,293.2,030523,000.0,W*7C
$GPGGA,081104.230,4831.399,N,00744.370,E,1,12,1.0,0.0,M,0.0,M,,*6D
$GPGSA,A,3,01,02,03,04,05,06,07,08,09,10,11,12,1.0,1.0,1.0*30
$GPRMC,081104.230,A,4831.399,N,00744.370,E,011.6,294.0,030523,000.0,W*77
$GPGGA,081105.230,4831.401,N,00744.366,E,1,12,1.0,0.0,M,0.0,M,,*6D
$GPGSA,A,3,01,02,03,04,05,06,07,08,09,10,11,12,1.0,1.0,1.0*30
$GPRMC,081105.230,A,4831.401,N,00744.366,E,015.3,292.7,030523,000.0,W*77
$GPGGA,081106.230,4831.403,N,00744.361,E,1,12,1.0,0.0,M,0.0,M,,*6B
$GPGSA,A,3,01,02,03,04,05,06,07,08,09,10,11,12,1.0,1.0,1.0*30
$GPRMC,081106.230,A,4831.403,N,00744.361,E,014.3,291.1,030523,000.0,W*75
$GPGGA,081107.230,4831.405,N,00744.356,E,1,12,1.0,0.0,M,0.0,M,,*68
$GPGSA,A,3,01,02,03,04,05,06,07,08,09,10,11,12,1.0,1.0,1.0*30
$GPRMC,081107.230,A,4831.405,N,00744.356,E,014.5,294.1,030523,000.0,W*75
$GPGGA,081108.230,4831.407,N,00744.351,E,1,12,1.0,0.0,M,0.0,M,,*62
$GPGSA,A,3,01,02,03,04,05,06,07,08,09,10,11,12,1.0,1.0,1.0*30
$GPRMC,081108.230,A,4831.407,N,00744.351,E,012.4,285.9,030523,000.0,W*70
$GPGGA,081109.230,4831.409,N,00744.346,E,1,12,1.0,0.0,M,0.0,M,,*6B
$GPGSA,A,3,01,02,03,04,05,06,07,08,09,10,11,12,1.0,1.0,1.0*30
$GPRMC,081109.230,A,4831.409,N,00744.346,E,012.6,287.4,030523,000.0,W*74
$GPGGA,081110.230,4831.410,N,00744.341,E,1,12,1.0,0.0,M,0.0,M,,*6C
$GPGSA,A,3,01,02,03,04,05,06,07,08,09,10,11,12,1.0,1.0,1.0*30
$GPRMC,081110.230,A,4831.410,N,00744.341,E,010.4,286.8,030523,000.0,W*7E
$GPGGA,081111.230,4831.411,N,00744.337,E,1,12,1.0,0.0,M,0.0,M,,*6D
$GPGSA,A,3,01,02,03,04,05,06,07,08,09,10,11,12,1.0,1.0,1.0*30
$GPRMC,081111.230,A,4831.411,N,00744.337,E,013.1,284.7,030523,000.0,W*74
$GPGGA,081112.230,4831.413,N,00744.332,E,1,12,1.0,0.0,M,0.0,M,,*69
$GPGSA,A,3,01,02,03,04,05,06,07,08,09,10,11,12,1.0,1.0,1.0*30
$GPRMC,081112.230,A,4831.413,N,00744.332,E,015.0,284.9,030523,000.0,W*79
$GPGGA,081113.230,4831.414,N,00744.326,E,1,12,1.0,0.0,M,0.0,M,,*6A
$GPGSA,A,3,01,02,03,04,05,06,07,08,09,10,11,12,1.0,1.0,1.0*30
$GPRMC,081113.230,A,4831.414,N,00744.326,E,012.2,284.1,030523,000.0,W*77
$GPGGA,081114.230,4831.415,N,00744.321,E,1,12,1.0,0.0,M,0.0,M,,*6B
$GPGSA,A,3,01,02,03,04,05,06,07,08,09,10,11,12,1.0,1.0,1.0*30
$GPRMC,081114.230,A,4831.415,N,00744.321,E,010.3,283.7,030523,000.0,W*74
$GPGGA,081115.230,4831.416,N,00744.317,E,1,12,1.0,0.0,M,0.0,M,,*6C
$GPGSA,A,3,01,02,03,04,05,06,07,08,09,10,11,12,1.0,1.0,1.0*30
$GPRMC,081115.230,A,4831.416,N,00744.317,E,011.9,280.8,030523,000.0,W*74
$GPGGA,081116.230,4831.417,N,00744.313,E,1,12,1.0,0.0,M,0.0,M,,*6A
$GPGSA,A,3,01,02,03,04,05,06,07,08,09,10,11,12,1.0,1.0,1.0*30
$GPRMC,081116.230,A,4831.417,N,00744.313,E,011.1,282.3,030523,000.0,W*73
$GPGGA,081117.230,4831.418,N,00744.308,E,1,12,1.0,0.0,M,0.0,M,,*6E
$GPGSA,A,3,01,02,03,04,05,06,07,08,09,10,11,12,1.0,1.0,1.0*30
$GPRMC,081117.230,A,4831.418,N,00744.308,E,010.5,281.9,030523,000.0,W*7B
$GPGGA,081118.230,4831.419,N,00744.304,E,1,12,1.0,0.0,M,0.0,M,,*6C
$GPGSA,A,3,01,02,03,04,05,06,07,08,09,10,11,12,1.0,1.0,1.0*30
$GPRMC,081118.230,A,4831.419,N,00744.304,E,010.0,282.5,030523,000.0,W*73
$GPGGA,081119.230,4831.420,N,00744.300,E,1,12,1.0,0.0,M,0.0,M,,*63
$GPGSA,A,3,01,02,03,04,05,06,07,08,09,10,11,12,1.0,1.0,1.0*30
$GPRMC,081119.230,A,4831.420,N,00744.300,E,009.8,281.5,030523,000.0,W*7F
$GPGGA,081120.230,4831.421,N,00744.296,E,1,12,1.0,0.0,M,0.0,M,,*66
$GPGSA,A,3,01,02,03,04,05,06,07,08,09,10,11,12,1.0,1.0,1.0*30
$GPRMC,081120.230,A,4831.421,N,00744.296,E,011.6,285.7,030523,000.0,W*7B
$GPGGA,081121.230,4831.422,N,00744.292,E,1,12,1.0,0.0,M,0.0,M,,*60
$GPGSA,A,3,01,02,03,04,05,06,07,08,09,10,11,12,1.0,1.0,1.0*30
$GPRMC,081121.230,A,4831.422,N,00744.292,E,010.4,288.2,030523,000.0,W*76
$GPGGA,081122.230,4831.423,N,00744.288,E,1,12,1.0,0.0,M,0.0,M,,*69
$GPGSA,A,3,01,02,03,04,05,06,07,08,09,10,11,12,1.0,1.0,1.0*30
$GPRMC,081122.230,A,4831.423,N,00744.288,E,012.6,297.1,030523,000.0,W*72
$GPGGA,081123.230,4831.425,N,00744.283,E,1,12,1.0,0.0,M,0.0,M,,*65
$GPGSA,A,3,01,02,03,04,05,06,07,08,09,10,11,12,1.0,1.0,1.0*30
$GPRMC,081123.230,A,4831.425,N,00744.283,E,010.7,298.1,030523,000.0,W*72
$GPGGA,081124.230,4831.427,N,00744.280,E,1,12,1.0,0.0,M,0.0,M,,*63
$GPGSA,A,3,01,02,03,04,05,06,07,08,09,10,11,12,1.0,1.0,1.0*30
$GPRMC,081124.230,A,4831.427,N,00744.280,E,011.1,301.7,030523,000.0,W*74
$GPGGA,081125.230,4831.429,N,00744.277,E,1,12,1.0,0.0,M,0.0,M,,*64
$GPGSA,A,3,01,02,03,04,05,06,07,08,09,10,11,12,1.0,1.0,1.0*30
$GPRMC,081125.230,A,4831.429,N,00744.277,E,011.3,306.9,030523,000.0,W*78
$GPGGA,081126.230,4831.432,N,00744.273,E,1,12,1.0,0.0,M,0.0,M,,*69
$GPGSA,A,3,01,02,03,04,05,06,07,08,09,10,11,12,1.0,1.0,1.0*30
$GPRMC,081126.230,A,4831.432,N,00744.273,E,011.7,306.8,030523,000.0,W*70
$GPGGA,081127.230,4831.434,N,00744.270,E,1,12,1.0,0.0,M,0.0,M,,*6D
$GPGSA,A,3,01,02,03,04,05,06,07,08,09,10,11,12,1.0,1.0,1.0*30
$GPRMC,081127.230,A,4831.434,N,00744.270,E,012.7,313.4,030523,000.0,W*7F
$GPGGA,081128.230,4831.437,N,00744.267,E,1,12,1.0,0.0,M,0.0,M,,*67
$GPGSA,A,3,01,02,03,04,05,06,07,08,09,10,11,12,1.0,1.0,1.0*30
$GPRMC,081128.230,A,4831.437,N,00744.267,E,011.6,313.6,030523,000.0,W*75
$GPGGA,081129.230,4831.440,N,00744.264,E,1,12,1.0,0.0,M,0.0,M,,*65
$GPGSA,A,3,01,02,03,04,05,06,07,08,09,10,11,12,1.0,1.0,1.0*30
$GPRMC,081129.230,A,4831.440,N,00744.264,E,011.3,324.6,030523,000.0,W*76
$GPGGA,081130.230,4831.442,N,00744.262,E,1,12,1.0,0.0,M,0.0,M,,*69
$GPGSA,A,3,01,02,03,04,05,06,07,08,09,10,11,12,1.0,1.0,1.0*30
$GPRMC,081130.230,A,4831.442,N,00744.262,E,011.0,326.0,030523,000.0,W*7D
$GPGGA,081131.230,4831.445,N,00744.260,E,1,12,1.0,0.0,M,0.0,M,,*6D
$GPGSA,A,3,01,02,03,04,05,06,07,08,09,10,11,12,1.0,1.0,1.0*30
$GPRMC,081131.230,A,4831.445,N,00744.260,E,011.0,326.6,030523,000.0,W*7F
$GPGGA,081132.230,4831.448,N,00744.259,E,1,12,1.0,0.0,M,0.0,M,,*69
$GPGSA,A,3,01,02,03,04,05,06,07,08,09,10,11,12,1.0,1.0,1.0*30
$GPRMC,081132.230,A,4831.448,N,00744.259,E,012.5,338.5,030523,000.0,W*71
$GPGGA,081133.230,4831.451,N,00744.257,E,1,12,1.0,0.0,M,0.0,M,,*6E
$GPGSA,A,3,01,02,03,04,05,06,07,08,09,10,11,12,1.0,1.0,1.0*30
$GPRMC,081133.230,A,4831.451,N,00744.257,E,014.3,343.4,030523,000.0,W*7B
$GPGGA,081134.230,4831.455,N,00744.256,E,1,12,1.0,0.0,M,0.0,M,,*6C
$GPGSA,A,3,01,02,03,04,05,06,07,08,09,10,11,12,1.0,1.0,1.0*30
$GPRMC,081134.230,A,4831.455,N,00744.256,E,013.0,000.0,030523,000.0,W*7D
$GPGGA,081135.230,4831.459,N,00744.256,E,1,12,1.0,0.0,M,0.0,M,,*61
$GPGSA,A,3,01,02,03,04,05,06,07,08,09,10,11,12,1.0,1.0,1.0*30
$GPRMC,081135.230,A,4831.459,N,00744.256,E,010.5,000.8,030523,000.0,W*7E
$GPGGA,081136.230,4831.462,N,00744.256,E,1,12,1.0,0.0,M,0.0,M,,*6A
$GPGSA,A,3,01,02,03,04,05,06,07,08,09,10,11,12,1.0,1.0,1.0*30
$GPRMC,081136.230,A,4831.462,N,00744.256,E,011.1,359.3,030523,000.0,W*74
$GPGGA,081137.230,4831.465,N,00744.256,E,1,12,1.0,0.0,M,0.0,M,,*6C
$GPGSA,A,3,01,02,03,04,05,06,07,08,09,10,11,12,1.0,1.0,1.0*30
$GPRMC,081137.230,A,4831.465,N,00744.256,E,011.3,359.3,030523,000.0,W*70
$GPGGA,081138.230,4831.468,N,00744.256,E,1,12,1.0,0.0,M,0.0,M,,*6E
$GPGSA,A,3,01,02,03,04,05,06,07,08,09,10,11,12,1.0,1.0,1.0*30
$GPRMC,081138.230,A,4831.468,N,00744.256,E,010.7,000.0,030523,000.0,W*7B
$GPGGA,081139.230,4831.471,N,00744.256,E,1,12,1.0,0.0,M,0.0,M,,*67
$GPGSA,A,3,01,02,03,04,05,06,07,08,09,10,11,12,1.0,1.0,1.0*30
$GPRMC,081139.230,A,4831.471,N,00744.256,E,010.6,000.8,030523,000.0,W*7B
$GPGGA,081140.230,4831.474,N,00744.256,E,1,12,1.0,0.0,M,0.0,M,,*6C
$GPGSA,A,3,01,02,03,04,05,06,07,08,09,10,11,12,1.0,1.0,1.0*30
$GPRMC,081140.230,A,4831.474,N,00744.256,E,011.1,000.0,030523,000.0,W*7E
$GPGGA,081141.230,4831.477,N,00744.256,E,1,12,1.0,0.0,M,0.0,M,,*6E
$GPGSA,A,3,01,02,03,04,05,06,07,08,09,10,11,12,1.0,1.0,1.0*30
$GPRMC,081141.230,A,4831.477,N,00744.256,E,008.1,002.1,030523,000.0,W*77
$GPGGA,081142.230,4831.479,N,00744.256,E,1,12,1.0,0.0,M,0.0,M,,*63
$GPGSA,A,3,01,02,03,04,05,06,07,08,09,10,11,12,1.0,1.0,1.0*30
$GPRMC,081142.230,A,4831.479,N,00744.256,E,008.1,002.1,030523,000.0,W*7A
